{
  "type": "FeatureCollection",
  "features": [
    {
      "type": "Feature",
      "properties": {
        "norad_id": 33412,
        "name": "COSMO-SKYMED 3",
        "group": "resource",
        "lat": -0.2098070676468123,
        "lon": -173.45583725866283,
        "alt_km": 563.257127829992,
        "timestamp": "2025-12-02T07:10:08.765938+00:00",
        "meta_object_name": "COSMO-SKYMED 3",
        "meta_object_id": "2008-054A",
        "meta_epoch": "2025-12-01T20:00:06.114240",
        "meta_mean_motion": 15.05190749,
        "meta_eccentricity": 0.0015245,
        "meta_inclination": 97.8478,
        "meta_ra_of_asc_node": 186.0423,
        "meta_arg_of_pericenter": 210.1619,
        "meta_mean_anomaly": 149.873,
        "meta_ephemeris_type": 0,
        "meta_classification_type": "U",
        "meta_norad_cat_id": 33412,
        "meta_element_set_no": 999,
        "meta_rev_at_epoch": 92723,
        "meta_bstar": 0.00032321,
        "meta_mean_motion_dot": 4.556e-05,
        "meta_mean_motion_ddot": 0,
        "tle_line1": "1 33412U 08054A   25335.83340410  .00004556  00000+0  32321-3 0  9994",
        "tle_line2": "2 33412  97.8478 186.0423 0015245 210.1619 149.8730 15.05190749927235"
      },
      "geometry": {
        "type": "Point",
        "coordinates": [
          -173.45583725866283,
          -0.2098070676468123
        ]
      }
    },
    {
      "type": "Feature",
      "properties": {
        "norad_id": 33446,
        "name": "YAOGAN-4",
        "group": "resource",
        "lat": 68.31240475601068,
        "lon": 106.98179703052674,
        "alt_km": 618.2162692037073,
        "timestamp": "2025-12-02T07:10:08.765948+00:00",
        "meta_object_name": "YAOGAN-4",
        "meta_object_id": "2008-061A",
        "meta_epoch": "2025-12-01T17:42:59.550336",
        "meta_mean_motion": 14.8262448,
        "meta_eccentricity": 0.0014543,
        "meta_inclination": 97.9166,
        "meta_ra_of_asc_node": 265.9464,
        "meta_arg_of_pericenter": 359.9883,
        "meta_mean_anomaly": 0.1328,
        "meta_ephemeris_type": 0,
        "meta_classification_type": "U",
        "meta_norad_cat_id": 33446,
        "meta_element_set_no": 999,
        "meta_rev_at_epoch": 91640,
        "meta_bstar": 0.00022043,
        "meta_mean_motion_dot": 1.725e-05,
        "meta_mean_motion_ddot": 0,
        "tle_line1": "1 33446U 08061A   25335.73818924  .00001725  00000+0  22043-3 0  9993",
        "tle_line2": "2 33446  97.9166 265.9464 0014543 359.9883   0.1328 14.82624480916401"
      },
      "geometry": {
        "type": "Point",
        "coordinates": [
          106.98179703052674,
          68.31240475601068
        ]
      }
    },
    {
      "type": "Feature",
      "properties": {
        "norad_id": 33492,
        "name": "GOSAT (IBUKI)",
        "group": "resource",
        "lat": 8.920420503860527,
        "lon": 83.77006742842939,
        "alt_km": 670.4757636103886,
        "timestamp": "2025-12-02T07:10:08.765959+00:00",
        "meta_object_name": "GOSAT (IBUKI)",
        "meta_object_id": "2009-002A",
        "meta_epoch": "2025-12-01T19:40:25.008096",
        "meta_mean_motion": 14.67545337,
        "meta_eccentricity": 0.0001003,
        "meta_inclination": 98.0766,
        "meta_ra_of_asc_node": 84.575,
        "meta_arg_of_pericenter": 84.1946,
        "meta_mean_anomaly": 275.9373,
        "meta_ephemeris_type": 0,
        "meta_classification_type": "U",
        "meta_norad_cat_id": 33492,
        "meta_element_set_no": 999,
        "meta_rev_at_epoch": 90251,
        "meta_bstar": 0.00018939,
        "meta_mean_motion_dot": 1.026e-05,
        "meta_mean_motion_ddot": 0,
        "tle_line1": "1 33492U 09002A   25335.81973389  .00001026  00000+0  18939-3 0  9999",
        "tle_line2": "2 33492  98.0766  84.5750 0001003  84.1946 275.9373 14.67545337902512"
      },
      "geometry": {
        "type": "Point",
        "coordinates": [
          83.77006742842939,
          8.920420503860527
        ]
      }
    },
    {
      "type": "Feature",
      "properties": {
        "norad_id": 35681,
        "name": "DEIMOS-1",
        "group": "resource",
        "lat": 10.073003030939349,
        "lon": -41.231830632648304,
        "alt_km": 646.4228702236587,
        "timestamp": "2025-12-02T07:10:08.765970+00:00",
        "meta_object_name": "DEIMOS-1",
        "meta_object_id": "2009-041A",
        "meta_epoch": "2025-12-01T20:37:59.405376",
        "meta_mean_motion": 14.74924599,
        "meta_eccentricity": 0.0002661,
        "meta_inclination": 97.7145,
        "meta_ra_of_asc_node": 136.97,
        "meta_arg_of_pericenter": 99.2344,
        "meta_mean_anomaly": 260.9167,
        "meta_ephemeris_type": 0,
        "meta_classification_type": "U",
        "meta_norad_cat_id": 35681,
        "meta_element_set_no": 999,
        "meta_rev_at_epoch": 87779,
        "meta_bstar": 0.00012651,
        "meta_mean_motion_dot": 8.02e-06,
        "meta_mean_motion_ddot": 0,
        "tle_line1": "1 35681U 09041A   25335.85971534  .00000802  00000+0  12651-3 0  9994",
        "tle_line2": "2 35681  97.7145 136.9700 0002661  99.2344 260.9167 14.74924599877793"
      },
      "geometry": {
        "type": "Point",
        "coordinates": [
          -41.231830632648304,
          10.073003030939349
        ]
      }
    },
    {
      "type": "Feature",
      "properties": {
        "norad_id": 35682,
        "name": "DUBAISAT-1",
        "group": "resource",
        "lat": 61.00231288966158,
        "lon": -58.20924406859586,
        "alt_km": 645.0513308608361,
        "timestamp": "2025-12-02T07:10:08.765982+00:00",
        "meta_object_name": "DUBAISAT-1",
        "meta_object_id": "2009-041B",
        "meta_epoch": "2025-12-01T19:14:10.915872",
        "meta_mean_motion": 14.74551985,
        "meta_eccentricity": 0.0010249,
        "meta_inclination": 97.9785,
        "meta_ra_of_asc_node": 106.6433,
        "meta_arg_of_pericenter": 351.725,
        "meta_mean_anomaly": 8.3788,
        "meta_ephemeris_type": 0,
        "meta_classification_type": "U",
        "meta_norad_cat_id": 35682,
        "meta_element_set_no": 999,
        "meta_rev_at_epoch": 87600,
        "meta_bstar": 0.00020872,
        "meta_mean_motion_dot": 1.34e-05,
        "meta_mean_motion_ddot": 0,
        "tle_line1": "1 35682U 09041B   25335.80151523  .00001340  00000+0  20872-3 0  9990",
        "tle_line2": "2 35682  97.9785 106.6433 0010249 351.7250   8.3788 14.74551985876007"
      },
      "geometry": {
        "type": "Point",
        "coordinates": [
          -58.20924406859586,
          61.00231288966158
        ]
      }
    },
    {
      "type": "Feature",
      "properties": {
        "norad_id": 35931,
        "name": "OCEANSAT-2",
        "group": "resource",
        "lat": -48.195727206116295,
        "lon": 148.65158268718955,
        "alt_km": 913.0389308195145,
        "timestamp": "2025-12-02T07:10:08.765997+00:00",
        "meta_object_name": "OCEANSAT-2",
        "meta_object_id": "2009-051A",
        "meta_epoch": "2025-12-01T21:30:07.263360",
        "meta_mean_motion": 13.99626857,
        "meta_eccentricity": 0.0016683,
        "meta_inclination": 98.2233,
        "meta_ra_of_asc_node": 337.5958,
        "meta_arg_of_pericenter": 73.1373,
        "meta_mean_anomaly": 287.1622,
        "meta_ephemeris_type": 0,
        "meta_classification_type": "U",
        "meta_norad_cat_id": 35931,
        "meta_element_set_no": 999,
        "meta_rev_at_epoch": 85173,
        "meta_bstar": -8.4591e-05,
        "meta_mean_motion_dot": -1.61e-06,
        "meta_mean_motion_ddot": 0,
        "tle_line1": "1 35931U 09051A   25335.89591740 -.00000161  00000+0 -84591-4 0  9997",
        "tle_line2": "2 35931  98.2233 337.5958 0016683  73.1373 287.1622 13.99626857851736"
      },
      "geometry": {
        "type": "Point",
        "coordinates": [
          148.65158268718955,
          -48.195727206116295
        ]
      }
    },
    {
      "type": "Feature",
      "properties": {
        "norad_id": 35946,
        "name": "WORLDVIEW-2 (WV-2)",
        "group": "resource",
        "lat": 2.025127945848689,
        "lon": 47.22677169525853,
        "alt_km": 768.9255155818546,
        "timestamp": "2025-12-02T07:10:08.766008+00:00",
        "meta_object_name": "WORLDVIEW-2 (WV-2)",
        "meta_object_id": "2009-055A",
        "meta_epoch": "2025-12-01T19:28:01.479072",
        "meta_mean_motion": 14.37644233,
        "meta_eccentricity": 0.0005442,
        "meta_inclination": 98.4773,
        "meta_ra_of_asc_node": 47.0482,
        "meta_arg_of_pericenter": 93.0033,
        "meta_mean_anomaly": 267.1777,
        "meta_ephemeris_type": 0,
        "meta_classification_type": "U",
        "meta_norad_cat_id": 35946,
        "meta_element_set_no": 999,
        "meta_rev_at_epoch": 84728,
        "meta_bstar": 8.1032e-05,
        "meta_mean_motion_dot": 2e-06,
        "meta_mean_motion_ddot": 0,
        "tle_line1": "1 35946U 09055A   25335.81112823  .00000200  00000+0  81032-4 0  9999",
        "tle_line2": "2 35946  98.4773  47.0482 0005442  93.0033 267.1777 14.37644233847288"
      },
      "geometry": {
        "type": "Point",
        "coordinates": [
          47.22677169525853,
          2.025127945848689
        ]
      }
    }
  ]
}